{
  "type": "FeatureCollection",
  "features": [
    {
      "type": "Feature",
      "properties": {
        "norad_id": 31761,
        "name": "FENGYUN 1C DEB",
        "group": "fengyun-1c-debris",
        "lat": 18.98225344279386,
        "lon": -138.6100095994727,
        "alt_km": 1192.5360258499522,
        "timestamp": "2025-12-27T03:58:44.434774+00:00",
        "meta_object_name": "FENGYUN 1C DEB",
        "meta_object_id": "1999-025CFL",
        "meta_epoch": "2025-12-26T09:03:40.559328",
        "meta_mean_motion": 14.03653694,
        "meta_eccentricity": 0.0470823,
        "meta_inclination": 98.6342,
        "meta_ra_of_asc_node": 223.6341,
        "meta_arg_of_pericenter": 224.8549,
        "meta_mean_anomaly": 131.3656,
        "meta_ephemeris_type": 0,
        "meta_classification_type": "U",
        "meta_norad_cat_id": 31761,
        "meta_element_set_no": 999,
        "meta_rev_at_epoch": 58302,
        "meta_bstar": 0.0017034,
        "meta_mean_motion_dot": 7.224e-05,
        "meta_mean_motion_ddot": 0,
        "tle_line1": "1 31761U 99025CFL 25360.37755277  .00007224  00000+0  17034-2 0  9993",
        "tle_line2": "2 31761  98.6342 223.6341 0470823 224.8549 131.3656 14.03653694583025"
      },
      "geometry": {
        "type": "Point",
        "coordinates": [
          -138.6100095994727,
          18.98225344279386
        ]
      }
    },
    {
      "type": "Feature",
      "properties": {
        "norad_id": 31763,
        "name": "FENGYUN 1C DEB",
        "group": "fengyun-1c-debris",
        "lat": 8.563117364509433,
        "lon": -71.13865234650848,
        "alt_km": 1369.841302980688,
        "timestamp": "2025-12-27T03:58:44.434783+00:00",
        "meta_object_name": "FENGYUN 1C DEB",
        "meta_object_id": "1999-025CFN",
        "meta_epoch": "2025-12-24T01:21:59.387040",
        "meta_mean_motion": 13.50350677,
        "meta_eccentricity": 0.0546364,
        "meta_inclination": 98.5205,
        "meta_ra_of_asc_node": 104.8899,
        "meta_arg_of_pericenter": 40.2812,
        "meta_mean_anomaly": 141.7775,
        "meta_ephemeris_type": 0,
        "meta_classification_type": "U",
        "meta_norad_cat_id": 31763,
        "meta_element_set_no": 999,
        "meta_rev_at_epoch": 91158,
        "meta_bstar": 0.00057862124,
        "meta_mean_motion_dot": 9.11e-06,
        "meta_mean_motion_ddot": 0,
        "tle_line1": "1 31763U 99025CFN 25358.05693735  .00000911  00000+0  57862-3 0  9997",
        "tle_line2": "2 31763  98.5205 104.8899 0546364  40.2812 141.7775 13.50350677911588"
      },
      "geometry": {
        "type": "Point",
        "coordinates": [
          -71.13865234650848,
          8.563117364509433
        ]
      }
    },
    {
      "type": "Feature",
      "properties": {
        "norad_id": 31766,
        "name": "FENGYUN 1C DEB",
        "group": "fengyun-1c-debris",
        "lat": 56.17658320851461,
        "lon": -168.01319981190983,
        "alt_km": 902.4211078432118,
        "timestamp": "2025-12-27T03:58:44.434793+00:00",
        "meta_object_name": "FENGYUN 1C DEB",
        "meta_object_id": "1999-025CFR",
        "meta_epoch": "2025-12-22T05:29:01.188672",
        "meta_mean_motion": 14.05283405,
        "meta_eccentricity": 0.00734706,
        "meta_inclination": 98.8171,
        "meta_ra_of_asc_node": 353.7923,
        "meta_arg_of_pericenter": 264.1767,
        "meta_mean_anomaly": 95.1022,
        "meta_ephemeris_type": 0,
        "meta_classification_type": "U",
        "meta_norad_cat_id": 31766,
        "meta_element_set_no": 999,
        "meta_rev_at_epoch": 64219,
        "meta_bstar": 0.00016407086,
        "meta_mean_motion_dot": 2.28e-06,
        "meta_mean_motion_ddot": 0,
        "tle_line1": "1 31766U 99025CFR 25356.22848598  .00000228  00000+0  16407-3 0  9997",
        "tle_line2": "2 31766  98.8171 353.7923 0073470 264.1767  95.1022 14.05283405642198"
      },
      "geometry": {
        "type": "Point",
        "coordinates": [
          -168.01319981190983,
          56.17658320851461
        ]
      }
    },
    {
      "type": "Feature",
      "properties": {
        "norad_id": 31767,
        "name": "FENGYUN 1C DEB",
        "group": "fengyun-1c-debris",
        "lat": 76.49215351236215,
        "lon": -9.812084301765312,
        "alt_km": 849.9062255456038,
        "timestamp": "2025-12-27T03:58:44.434802+00:00",
        "meta_object_name": "FENGYUN 1C DEB",
        "meta_object_id": "1999-025CFS",
        "meta_epoch": "2025-12-24T13:06:04.201344",
        "meta_mean_motion": 14.04960762,
        "meta_eccentricity": 0.00413509,
        "meta_inclination": 98.8206,
        "meta_ra_of_asc_node": 27.9098,
        "meta_arg_of_pericenter": 37.4471,
        "meta_mean_anomaly": 118.1343,
        "meta_ephemeris_type": 0,
        "meta_classification_type": "U",
        "meta_norad_cat_id": 31767,
        "meta_element_set_no": 999,
        "meta_rev_at_epoch": 94991,
        "meta_bstar": 0.00032088657,
        "meta_mean_motion_dot": 4.77e-06,
        "meta_mean_motion_ddot": 0,
        "tle_line1": "1 31767U 99025CFS 25358.54588196  .00000477  00000+0  32089-3 0  9990",
        "tle_line2": "2 31767  98.8206  27.9098 0041350  37.4471 118.1343 14.04960762949915"
      },
      "geometry": {
        "type": "Point",
        "coordinates": [
          -9.812084301765312,
          76.49215351236215
        ]
      }
    },
    {
      "type": "Feature",
      "properties": {
        "norad_id": 31768,
        "name": "FENGYUN 1C DEB",
        "group": "fengyun-1c-debris",
        "lat": -63.582635134837595,
        "lon": 94.44369410001379,
        "alt_km": 628.5295006579609,
        "timestamp": "2025-12-27T03:58:44.434811+00:00",
        "meta_object_name": "FENGYUN 1C DEB",
        "meta_object_id": "1999-025CFT",
        "meta_epoch": "2025-12-24T23:24:56.682720",
        "meta_mean_motion": 14.7653893,
        "meta_eccentricity": 0.00265868,
        "meta_inclination": 99.0407,
        "meta_ra_of_asc_node": 73.3007,
        "meta_arg_of_pericenter": 301.9277,
        "meta_mean_anomaly": 237.8153,
        "meta_ephemeris_type": 0,
        "meta_classification_type": "U",
        "meta_norad_cat_id": 31768,
        "meta_element_set_no": 999,
        "meta_rev_at_epoch": 97053,
        "meta_bstar": 0.0026794233,
        "meta_mean_motion_dot": 0.00018774,
        "meta_mean_motion_ddot": 0,
        "tle_line1": "1 31768U 99025CFT 25358.97565605  .00018774  00000+0  26794-2 0  9992",
        "tle_line2": "2 31768  99.0407  73.3007 0026586 301.9277 237.8153 14.76538930970531"
      },
      "geometry": {
        "type": "Point",
        "coordinates": [
          94.44369410001379,
          -63.582635134837595
        ]
      }
    },
    {
      "type": "Feature",
      "properties": {
        "norad_id": 31772,
        "name": "FENGYUN 1C DEB",
        "group": "fengyun-1c-debris",
        "lat": -70.59948051125055,
        "lon": -57.13068988454003,
        "alt_km": 941.4551153189504,
        "timestamp": "2025-12-27T03:58:44.434820+00:00",
        "meta_object_name": "FENGYUN 1C DEB",
        "meta_object_id": "1999-025CFX",
        "meta_epoch": "2025-12-21T17:20:55.932576",
        "meta_mean_motion": 14.11729705,
        "meta_eccentricity": 0.01371811,
        "meta_inclination": 98.4737,
        "meta_ra_of_asc_node": 272.682,
        "meta_arg_of_pericenter": 88.103,
        "meta_mean_anomaly": 273.5847,
        "meta_ephemeris_type": 0,
        "meta_classification_type": "U",
        "meta_norad_cat_id": 31772,
        "meta_element_set_no": 999,
        "meta_rev_at_epoch": 71010,
        "meta_bstar": 0.0008718097,
        "meta_mean_motion_dot": 1.696e-05,
        "meta_mean_motion_ddot": 0,
        "tle_line1": "1 31772U 99025CFX 25355.72286959  .00001696  00000+0  87181-3 0  9992",
        "tle_line2": "2 31772  98.4737 272.6820 0137181  88.1030 273.5847 14.11729705710100"
      },
      "geometry": {
        "type": "Point",
        "coordinates": [
          -57.13068988454003,
          -70.59948051125055
        ]
      }
    },
    {
      "type": "Feature",
      "properties": {
        "norad_id": 31773,
        "name": "FENGYUN 1C DEB",
        "group": "fengyun-1c-debris",
        "lat": -56.18619595386553,
        "lon": 7.154187267421978,
        "alt_km": 685.4524860199735,
        "timestamp": "2025-12-27T03:58:44.434829+00:00",
        "meta_object_name": "FENGYUN 1C DEB",
        "meta_object_id": "1999-025CFY",
        "meta_epoch": "2025-12-23T05:41:28.848480",
        "meta_mean_motion": 14.730751,
        "meta_eccentricity": 0.00397514,
        "meta_inclination": 98.95,
        "meta_ra_of_asc_node": 349.2185,
        "meta_arg_of_pericenter": 145.6123,
        "meta_mean_anomaly": 214.7666,
        "meta_ephemeris_type": 0,
        "meta_classification_type": "U",
        "meta_norad_cat_id": 31773,
        "meta_element_set_no": 999,
        "meta_rev_at_epoch": 65329,
        "meta_bstar": 0.0018495953,
        "meta_mean_motion_dot": 0.00012007,
        "meta_mean_motion_ddot": 0,
        "tle_line1": "1 31773U 99025CFY 25357.23713945  .00012007  00000+0  18496-2 0  9991",
        "tle_line2": "2 31773  98.9500 349.2185 0039751 145.6123 214.7666 14.73075100653298"
      },
      "geometry": {
        "type": "Point",
        "coordinates": [
          7.154187267421978,
          -56.18619595386553
        ]
      }
    }
  ]
}